2026-134A               
1 69538U 26134A   26191.59125477  .00003190  00000+0  20302-3 0  9998
2 69538  97.7009 261.7871 0015715 186.0657 174.0384 15.09436333  3848
2026-134B               
1 69539U 26134B   26191.58861789  .00003104  00000+0  19681-3 0  9994
2 69539  97.6985 261.7828 0015790 188.4087 171.6879 15.09592955  3833
2026-134C               
1 69540U 26134C   26191.58808476  .00003134  00000+0  19848-3 0  9998
2 69540  97.6990 261.7853 0015204 189.5408 170.5535 15.09625263  3834
2026-134D               
1 69541U 26134D   26192.05108402  .00002757  00000+0  17481-3 0  9995
2 69541  97.7028 262.2651 0016303 187.6800 172.4181 15.09685314  3905
2026-134E               
1 69542U 26134E   26192.05070777  .00002935  00000+0  18571-3 0  9998
2 69542  97.7046 262.2717 0016033 188.4106 171.6856 15.09707529  3900
2026-134F               
1 69543U 26134F   26192.04992271  .00002887  00000+0  18255-3 0  9995
2 69543  97.7000 262.2575 0015300 190.0079 170.0848 15.09752911  3906
2026-134G               
1 69544U 26134G   26192.51240068  .00002777  00000+0  17530-3 0  9991
2 69544  97.7043 262.7400 0015839 189.4492 170.6442 15.09839877  3974
2026-134H               
1 69545U 26134H   26192.04735072  .00002876  00000+0  18109-3 0  9997
2 69545  97.7029 262.2705 0015624 192.3067 167.7782 15.09904401  3896
STARLINK-37880          
1 69546U 26135A   26192.50002315  .00108487  00000+0  19738-2 0  9990
2 69546  97.2849 220.7586 0000942 109.2209 139.5514 15.49120404  5215
STARLINK-37881          
1 69547U 26135B   26192.50002315 -.02550772  00000+0 -37053-1 0  9992
2 69547  97.2839 220.8360 0001371  82.5446 349.3128 15.59556057  5219
STARLINK-37265          
1 69548U 26135C   26192.50002315 -.02474260  00000+0 -25371-1 0  9990
2 69548  97.2845 220.8871 0002015  91.3168  90.0194 15.68209485  5212
STARLINK-37871          
1 69549U 26135D   26192.50002315 -.02366730  00000+0 -37226-1 0  9995
2 69549  97.2851 220.8336 0001597  69.0596 346.6933 15.57160040  5219
STARLINK-37865          
1 69550U 26135E   26192.50002315 -.02555283  00000+0 -38660-1 0  9993
2 69550  97.2842 220.8390 0001797  88.9417 350.1816 15.58491318  5211
STARLINK-37862          
1 69551U 26135F   26192.50002315 -.01793115  00000+0 -20874-1 0  9999
2 69551  97.2845 220.8742 0001780 100.3044  53.5825 15.64561026  5218
STARLINK-37861          
1 69552U 26135G   26192.50002315 -.02560149  00000+0 -35796-1 0  9999
2 69552  97.2842 220.8596 0001706  75.1630  51.2796 15.60559783  5216
STARLINK-37859          
1 69553U 26135H   26192.50002315 -.01508351  00000+0 -19729-1 0  9994
2 69553  97.2840 220.8716 0001843  79.1310  66.4006 15.61562953  5216
STARLINK-37860          
1 69554U 26135J   26192.50002315 -.02482746  00000+0 -27738-1 0  9994
2 69554  97.2844 220.8977 0001821  95.3423 108.9853 15.66120385  5217
STARLINK-37858          
1 69555U 26135K   26192.50002315 -.02354637  00000+0 -27386-1 0  9991
2 69555  97.2842 220.8890 0002057 103.7042  80.3536 15.64930331  5212
STARLINK-37927          
1 69556U 26135L   26192.50002315 -.02496662  00000+0 -37568-1 0  9990
2 69556  97.2842 220.8597 0001877  72.1292  53.2394 15.58538381  5215
STARLINK-37929          
1 69557U 26135M   26192.50002315 -.02341453  00000+0 -42316-1 0  9995
2 69557  97.2847 220.8329 0001258  88.9791 322.5201 15.53368341  5217
STARLINK-37954          
1 69558U 26135N   26192.50002315 -.02331142  00000+0 -41835-1 0  9995
2 69558  97.2848 220.8352 0001309  99.7389 318.0707 15.53542898  5217
STARLINK-37958          
1 69559U 26135P   26190.35553351  .00052572  00000+0  27487-3 0  9990
2 69559  97.2842 218.6737 0001420 185.9739 174.1513 15.80710505  3761
STARLINK-37950          
1 69560U 26135Q   26192.50002315 -.01171645  00000+0 -14496-1 0  9990
2 69560  97.2838 220.8976 0001015  80.1838 133.7910 15.62739479  5219
STARLINK-37952          
1 69561U 26135R   26192.50002315 -.02371523  00000+0 -35941-1 0  9997
2 69561  97.2849 220.8773 0001766  76.1853  78.3762 15.58151558  5212
STARLINK-37935          
1 69562U 26135S   26192.50002315 -.03105314  00000+0 -57385-1 0  9998
2 69562  97.2858 220.8438 0002659  72.3746 357.1960 15.53252039  5211
STARLINK-37936          
1 69563U 26135T   26192.50002315 -.02363067  00000+0 -40743-1 0  9999
2 69563  97.2846 220.8689 0002142  80.6210  61.0657 15.54678443  5218
STARLINK-37932          
1 69564U 26135U   26192.50002315 -.02397260  00000+0 -26812-1 0  9993
2 69564  97.2849 220.9332 0001619 124.6160 166.7628 15.65971425  5218
STARLINK-37916          
1 69565U 26135V   26192.50002315 -.02398724  00000+0 -32233-1 0  9994
2 69565  97.2846 220.9111 0001787  89.1033 144.8460 15.61332621  5217
STARLINK-37909          
1 69566U 26135W   26192.50002315 -.02516978  00000+0 -22760-1 0  9992
2 69566  97.2844 220.9678 0001249  78.7821 297.3769 15.71292642  5211
STARLINK-37934          
1 69567U 26135X   26188.44312228  .00293381  00000+0  14681-2 0  9998
2 69567  97.2845 216.6838 0003261 125.2579 234.8995 15.81011723  3469
