OBJECT_NAME,OBJECT_ID,EPOCH,MEAN_MOTION,ECCENTRICITY,INCLINATION,RA_OF_ASC_NODE,ARG_OF_PERICENTER,MEAN_ANOMALY,EPHEMERIS_TYPE,CLASSIFICATION_TYPE,NORAD_CAT_ID,ELEMENT_SET_NO,REV_AT_EPOCH,BSTAR,MEAN_MOTION_DOT,MEAN_MOTION_DDOT
2026-134A,2026-134A,2026-07-10T14:11:24.412128,15.09436333,.0015715,97.7009,261.7871,186.0657,174.0384,0,U,69538,999,384,.20302E-3,.319E-4,0
2026-134B,2026-134B,2026-07-10T14:07:36.585696,15.09592955,.001579,97.6985,261.7828,188.4087,171.6879,0,U,69539,999,383,.19681E-3,.3104E-4,0
2026-134C,2026-134C,2026-07-10T14:06:50.523264,15.09625263,.0015204,97.6990,261.7853,189.5408,170.5535,0,U,69540,999,383,.19848E-3,.3134E-4,0
2026-134D,2026-134D,2026-07-11T01:13:33.659328,15.09685314,.0016303,97.7028,262.2651,187.6800,172.4181,0,U,69541,999,390,.17481E-3,.2757E-4,0
2026-134E,2026-134E,2026-07-11T01:13:01.151328,15.09707529,.0016033,97.7046,262.2717,188.4106,171.6856,0,U,69542,999,390,.18571E-3,.2935E-4,0
2026-134F,2026-134F,2026-07-11T01:11:53.322144,15.09752911,.00153,97.7000,262.2575,190.0079,170.0848,0,U,69543,999,390,.18255E-3,.2887E-4,0
2026-134G,2026-134G,2026-07-11T12:17:51.418752,15.09839877,.0015839,97.7043,262.7400,189.4492,170.6442,0,U,69544,999,397,.1753E-3,.2777E-4,0
2026-134H,2026-134H,2026-07-11T01:08:11.102208,15.09904401,.0015624,97.7029,262.2705,192.3067,167.7782,0,U,69545,999,389,.18109E-3,.2876E-4,0
STARLINK-37880,2026-135A,2026-07-11T12:00:02.000160,15.49120404,.0000942,97.2849,220.7586,109.2209,139.5514,0,U,69546,999,521,.19738E-2,.108487E-2,0
STARLINK-37881,2026-135B,2026-07-11T12:00:02.000160,15.59556057,.0001371,97.2839,220.8360,82.5446,349.3128,0,U,69547,999,521,-.37053E-1,-.2550772E-1,0
STARLINK-37265,2026-135C,2026-07-11T12:00:02.000160,15.68209485,.0002015,97.2845,220.8871,91.3168,90.0194,0,U,69548,999,521,-.25371E-1,-.247426E-1,0
STARLINK-37871,2026-135D,2026-07-11T12:00:02.000160,15.57160040,.0001597,97.2851,220.8336,69.0596,346.6933,0,U,69549,999,521,-.37226E-1,-.236673E-1,0
STARLINK-37865,2026-135E,2026-07-11T12:00:02.000160,15.58491318,.0001797,97.2842,220.8390,88.9417,350.1816,0,U,69550,999,521,-.3866E-1,-.2555283E-1,0
STARLINK-37862,2026-135F,2026-07-11T12:00:02.000160,15.64561026,.000178,97.2845,220.8742,100.3044,53.5825,0,U,69551,999,521,-.20874E-1,-.1793115E-1,0
STARLINK-37861,2026-135G,2026-07-11T12:00:02.000160,15.60559783,.0001706,97.2842,220.8596,75.1630,51.2796,0,U,69552,999,521,-.35796E-1,-.2560149E-1,0
STARLINK-37859,2026-135H,2026-07-11T12:00:02.000160,15.61562953,.0001843,97.2840,220.8716,79.1310,66.4006,0,U,69553,999,521,-.19729E-1,-.1508351E-1,0
STARLINK-37860,2026-135J,2026-07-11T12:00:02.000160,15.66120385,.0001821,97.2844,220.8977,95.3423,108.9853,0,U,69554,999,521,-.27738E-1,-.2482746E-1,0
STARLINK-37858,2026-135K,2026-07-11T12:00:02.000160,15.64930331,.0002057,97.2842,220.8890,103.7042,80.3536,0,U,69555,999,521,-.27386E-1,-.2354637E-1,0
STARLINK-37927,2026-135L,2026-07-11T12:00:02.000160,15.58538381,.0001877,97.2842,220.8597,72.1292,53.2394,0,U,69556,999,521,-.37568E-1,-.2496662E-1,0
STARLINK-37929,2026-135M,2026-07-11T12:00:02.000160,15.53368341,.0001258,97.2847,220.8329,88.9791,322.5201,0,U,69557,999,521,-.42316E-1,-.2341453E-1,0
STARLINK-37954,2026-135N,2026-07-11T12:00:02.000160,15.53542898,.0001309,97.2848,220.8352,99.7389,318.0707,0,U,69558,999,521,-.41835E-1,-.2331142E-1,0
STARLINK-37958,2026-135P,2026-07-09T08:31:58.095264,15.80710505,.00014208,97.2842,218.6737,185.9739,174.1513,0,U,69559,999,376,.27486559E-3,.52572E-3,0
STARLINK-37950,2026-135Q,2026-07-11T12:00:02.000160,15.62739479,.0001015,97.2838,220.8976,80.1838,133.7910,0,U,69560,999,521,-.14496E-1,-.1171645E-1,0
STARLINK-37952,2026-135R,2026-07-11T12:00:02.000160,15.58151558,.0001766,97.2849,220.8773,76.1853,78.3762,0,U,69561,999,521,-.35941E-1,-.2371523E-1,0
STARLINK-37935,2026-135S,2026-07-11T12:00:02.000160,15.53252039,.0002659,97.2858,220.8438,72.3746,357.1960,0,U,69562,999,521,-.57385E-1,-.3105314E-1,0
STARLINK-37936,2026-135T,2026-07-11T12:00:02.000160,15.54678443,.0002142,97.2846,220.8689,80.6210,61.0657,0,U,69563,999,521,-.40743E-1,-.2363067E-1,0
STARLINK-37932,2026-135U,2026-07-11T12:00:02.000160,15.65971425,.0001619,97.2849,220.9332,124.6160,166.7628,0,U,69564,999,521,-.26812E-1,-.239726E-1,0
STARLINK-37916,2026-135V,2026-07-11T12:00:02.000160,15.61332621,.0001787,97.2846,220.9111,89.1033,144.8460,0,U,69565,999,521,-.32233E-1,-.2398724E-1,0
STARLINK-37909,2026-135W,2026-07-11T12:00:02.000160,15.71292642,.0001249,97.2844,220.9678,78.7821,297.3769,0,U,69566,999,521,-.2276E-1,-.2516978E-1,0
STARLINK-37934,2026-135X,2026-07-07T10:38:05.764992,15.81011723,.00032614,97.2845,216.6838,125.2579,234.8995,0,U,69567,999,346,.14681327E-2,.293381E-2,0
